{"RECORDS":[{"CCSDS_OPM_VERS":70314.41,"CREATION_DATE":"2041-06-03T07:13:18.824Z","ORIGINATOR":"Heathcote - Leannon","OBJECT_NAME":"!Y3p/<>y9\"","OBJECT_ID":"|]cb1R=9!2","CENTER_NAME":"[1633K.Z&9","REF_FRAME":0,"REF_FRAME_EPOCH":"2064-05-21T20:49:21.100Z","TIME_SYSTEM":4,"COMMENT":"ZoM'Ex&'Pg","EPOCH":"2088-07-27T09:59:20.833Z","X":63942.57,"Y":90409.96,"Z":86810.11,"X_DOT":85760.28,"Y_DOT":44755.66,"Z_DOT":67133.59,"SEMI_MAJOR_AXIS":49516.7,"ECCENTRICITY":10905.51,"INCLINATION":65286.7,"RA_OF_ASC_NODE":66567.68,"ARG_OF_PERICENTER":59170.26,"TRUE_ANOMALY":63568.99,"MEAN_ANOMALY":42658.4,"GM":73794.65,"MASS":48098.63,"SOLAR_RAD_AREA":22922.11,"SOLAR_RAD_COEFF":95646.17,"DRAG_AREA":51373.95,"DRAG_COEFF":31204.88,"COV_REF_FRAME":0,"CX_X":24298.78,"CY_X":29857.19,"CY_Y":42375.62,"CZ_X":45101.3,"CZ_Y":94997.44,"CZ_Z":24010.7,"CX_DOT_X":98813.9,"CX_DOT_Y":20711.16,"CX_DOT_Z":32027.16,"CX_DOT_X_DOT":90645.57,"CY_DOT_X":54216.54,"CY_DOT_Y":5975.3,"CY_DOT_Z":96375.31,"CY_DOT_X_DOT":46350.1,"CY_DOT_Y_DOT":28179.39,"CZ_DOT_X":30865.98,"CZ_DOT_Y":16568.46,"CZ_DOT_Z":38381.4,"CZ_DOT_X_DOT":66069.77,"CZ_DOT_Y_DOT":29519.18,"CZ_DOT_Z_DOT":95161.86,"MANEUVERS":[{"MAN_EPOCH_IGNITION":"2094-02-19T14:04:21.245Z","MAN_DURATION":79704.45,"MAN_DELTA_MASS":93207.52,"MAN_REF_FRAME":2,"MAN_DV_1":29606.59,"MAN_DV_2":78140.93,"MAN_DV_3":11923.43},{"MAN_EPOCH_IGNITION":"2095-07-05T06:25:03.608Z","MAN_DURATION":7830.36,"MAN_DELTA_MASS":26605.59,"MAN_REF_FRAME":2,"MAN_DV_1":81652.88,"MAN_DV_2":25597.84,"MAN_DV_3":43995.83}],"USER_DEFINED_BIP_0044_TYPE":1784287063,"USER_DEFINED_OBJECT_DESIGNATOR":"D0z&!bkry6","USER_DEFINED_EARTH_MODEL":"b}=8e/-RaC","USER_DEFINED_EPOCH_TIMESTAMP":46579.04,"USER_DEFINED_EPOCH_MICROSECONDS":41541.45},{"CCSDS_OPM_VERS":36606.28,"CREATION_DATE":"2008-08-05T09:15:38.753Z","ORIGINATOR":"Mertz Group","OBJECT_NAME":"!x:@}:74j<","OBJECT_ID":"gh6?\\YKCyq","CENTER_NAME":"%+l>!Qptuj","REF_FRAME":7,"REF_FRAME_EPOCH":"2035-03-04T05:02:19.382Z","TIME_SYSTEM":11,"COMMENT":"X_q0ACw.Gd","EPOCH":"1990-01-01T23:19:04.500Z","X":75746.47,"Y":93891.46,"Z":11880.22,"X_DOT":64525.53,"Y_DOT":81459.3,"Z_DOT":52189.29,"SEMI_MAJOR_AXIS":27285.14,"ECCENTRICITY":9970.53,"INCLINATION":64689.11,"RA_OF_ASC_NODE":68360.35,"ARG_OF_PERICENTER":28341.29,"TRUE_ANOMALY":22531.78,"MEAN_ANOMALY":49801.79,"GM":83394.49,"MASS":86976.09,"SOLAR_RAD_AREA":47785.42,"SOLAR_RAD_COEFF":95135.28,"DRAG_AREA":85582.83,"DRAG_COEFF":86025.42,"COV_REF_FRAME":1,"CX_X":50580.28,"CY_X":52481.29,"CY_Y":68412.18,"CZ_X":78902.16,"CZ_Y":43508.64,"CZ_Z":7467.78,"CX_DOT_X":73165.49,"CX_DOT_Y":56043.07,"CX_DOT_Z":59492.17,"CX_DOT_X_DOT":98902.89,"CY_DOT_X":90526.96,"CY_DOT_Y":95349.32,"CY_DOT_Z":7193.82,"CY_DOT_X_DOT":50077.68,"CY_DOT_Y_DOT":91163.85,"CZ_DOT_X":85844.39,"CZ_DOT_Y":5731.05,"CZ_DOT_Z":22923.19,"CZ_DOT_X_DOT":97064.97,"CZ_DOT_Y_DOT":54103.96,"CZ_DOT_Z_DOT":93168.24,"MANEUVERS":[{"MAN_EPOCH_IGNITION":"2080-12-14T19:45:06.367Z","MAN_DURATION":56680.74,"MAN_DELTA_MASS":83757.79,"MAN_REF_FRAME":1,"MAN_DV_1":54186.83,"MAN_DV_2":44368.77,"MAN_DV_3":61687.3},{"MAN_EPOCH_IGNITION":"2071-06-05T21:20:20.524Z","MAN_DURATION":57648.67,"MAN_DELTA_MASS":16199.8,"MAN_REF_FRAME":0,"MAN_DV_1":83063.21,"MAN_DV_2":30297.16,"MAN_DV_3":24218.43}],"USER_DEFINED_BIP_0044_TYPE":3517857820,"USER_DEFINED_OBJECT_DESIGNATOR":"*/n]{HfJ|@","USER_DEFINED_EARTH_MODEL":"_DaI7y&l5i","USER_DEFINED_EPOCH_TIMESTAMP":85604.93,"USER_DEFINED_EPOCH_MICROSECONDS":83075.27},{"CCSDS_OPM_VERS":21645.29,"CREATION_DATE":"2000-05-28T23:18:56.927Z","ORIGINATOR":"Schultz, Will and Bayer","OBJECT_NAME":"6Wj#_X#knM","OBJECT_ID":"Mr.cwZDf$J","CENTER_NAME":"\\4W^AZtWn,","REF_FRAME":9,"REF_FRAME_EPOCH":"2073-09-04T17:45:05.880Z","TIME_SYSTEM":11,"COMMENT":"XeE3*-j%?%","EPOCH":"2007-06-09T05:10:01.823Z","X":84063.4,"Y":49266.14,"Z":6476.31,"X_DOT":46487.1,"Y_DOT":67202.55,"Z_DOT":65557.95,"SEMI_MAJOR_AXIS":75140.77,"ECCENTRICITY":91044.07,"INCLINATION":32539.18,"RA_OF_ASC_NODE":51585.17,"ARG_OF_PERICENTER":68626.8,"TRUE_ANOMALY":93384.32,"MEAN_ANOMALY":86752.78,"GM":7415.32,"MASS":2120.8,"SOLAR_RAD_AREA":7331.25,"SOLAR_RAD_COEFF":42443.93,"DRAG_AREA":10137.27,"DRAG_COEFF":19495.77,"COV_REF_FRAME":2,"CX_X":92344.34,"CY_X":91259.28,"CY_Y":89782.17,"CZ_X":64003.61,"CZ_Y":71579.93,"CZ_Z":54407.39,"CX_DOT_X":28499.68,"CX_DOT_Y":95921.34,"CX_DOT_Z":55372.23,"CX_DOT_X_DOT":50819.77,"CY_DOT_X":58239.18,"CY_DOT_Y":32782.95,"CY_DOT_Z":24384.74,"CY_DOT_X_DOT":93241.12,"CY_DOT_Y_DOT":50567.58,"CZ_DOT_X":61904.48,"CZ_DOT_Y":26501.06,"CZ_DOT_Z":1002.64,"CZ_DOT_X_DOT":93258.22,"CZ_DOT_Y_DOT":10527.74,"CZ_DOT_Z_DOT":8297.18,"MANEUVERS":[{"MAN_EPOCH_IGNITION":"2001-01-19T07:02:16.548Z","MAN_DURATION":27041.89,"MAN_DELTA_MASS":70382.27,"MAN_REF_FRAME":1,"MAN_DV_1":16633.35,"MAN_DV_2":64989.3,"MAN_DV_3":95141.64},{"MAN_EPOCH_IGNITION":"2083-04-15T03:14:54.355Z","MAN_DURATION":45515.7,"MAN_DELTA_MASS":96455.02,"MAN_REF_FRAME":1,"MAN_DV_1":7292.11,"MAN_DV_2":34433.54,"MAN_DV_3":3268.34}],"USER_DEFINED_BIP_0044_TYPE":1375936692,"USER_DEFINED_OBJECT_DESIGNATOR":"k'ekz!&]-P","USER_DEFINED_EARTH_MODEL":"TvyLVp^X<C","USER_DEFINED_EPOCH_TIMESTAMP":93138.13,"USER_DEFINED_EPOCH_MICROSECONDS":81105.81},{"CCSDS_OPM_VERS":53158.2,"CREATION_DATE":"2013-03-10T02:45:05.908Z","ORIGINATOR":"Hand - Senger","OBJECT_NAME":"=&&$V5x*ra","OBJECT_ID":"mAcRR@ogIS","CENTER_NAME":"l2Rt|9RQFi","REF_FRAME":1,"REF_FRAME_EPOCH":"2058-05-28T07:53:26.193Z","TIME_SYSTEM":6,"COMMENT":")IJBd/HGPX","EPOCH":"2058-04-12T14:18:12.820Z","X":9561.44,"Y":9071.29,"Z":39919.13,"X_DOT":57646.9,"Y_DOT":59790.17,"Z_DOT":16309.31,"SEMI_MAJOR_AXIS":68139.37,"ECCENTRICITY":57467.74,"INCLINATION":6200.16,"RA_OF_ASC_NODE":61475.17,"ARG_OF_PERICENTER":65218.5,"TRUE_ANOMALY":29432.31,"MEAN_ANOMALY":54767.44,"GM":50173.59,"MASS":37944.81,"SOLAR_RAD_AREA":55873.94,"SOLAR_RAD_COEFF":58690.46,"DRAG_AREA":58153.63,"DRAG_COEFF":58725.38,"COV_REF_FRAME":2,"CX_X":10043.43,"CY_X":32935.42,"CY_Y":10641.93,"CZ_X":51850.83,"CZ_Y":77201.14,"CZ_Z":92296.53,"CX_DOT_X":41469.27,"CX_DOT_Y":85296.31,"CX_DOT_Z":84423.23,"CX_DOT_X_DOT":51442.32,"CY_DOT_X":92720.91,"CY_DOT_Y":75329.1,"CY_DOT_Z":89078.47,"CY_DOT_X_DOT":83386.58,"CY_DOT_Y_DOT":79783.33,"CZ_DOT_X":48381,"CZ_DOT_Y":12319.44,"CZ_DOT_Z":16330.74,"CZ_DOT_X_DOT":51130.77,"CZ_DOT_Y_DOT":41888.49,"CZ_DOT_Z_DOT":91428.81,"MANEUVERS":[{"MAN_EPOCH_IGNITION":"2074-01-13T19:20:00.643Z","MAN_DURATION":94012.7,"MAN_DELTA_MASS":85294.93,"MAN_REF_FRAME":0,"MAN_DV_1":45263.74,"MAN_DV_2":83212.16,"MAN_DV_3":70362.13},{"MAN_EPOCH_IGNITION":"2026-04-16T12:35:41.627Z","MAN_DURATION":86889.52,"MAN_DELTA_MASS":41311.39,"MAN_REF_FRAME":2,"MAN_DV_1":40531.84,"MAN_DV_2":40816.68,"MAN_DV_3":89031.12}],"USER_DEFINED_BIP_0044_TYPE":2355153982,"USER_DEFINED_OBJECT_DESIGNATOR":"dvR5^&LCJW","USER_DEFINED_EARTH_MODEL":"qH$/(7v/;Y","USER_DEFINED_EPOCH_TIMESTAMP":83610.45,"USER_DEFINED_EPOCH_MICROSECONDS":74032.88},{"CCSDS_OPM_VERS":2148.71,"CREATION_DATE":"2029-07-17T15:06:50.650Z","ORIGINATOR":"Hoeger, O'Kon and Lakin","OBJECT_NAME":"z;ptI,/wK1","OBJECT_ID":"P\"eNUM0]%l","CENTER_NAME":"9$bx&YGR?b","REF_FRAME":1,"REF_FRAME_EPOCH":"2001-06-22T01:49:46.329Z","TIME_SYSTEM":11,"COMMENT":"xwo'aQUCzF","EPOCH":"2079-07-10T01:30:45.291Z","X":85991.44,"Y":48904.01,"Z":46332.95,"X_DOT":7102.64,"Y_DOT":73977.71,"Z_DOT":47256.37,"SEMI_MAJOR_AXIS":35398.69,"ECCENTRICITY":31791.1,"INCLINATION":71517.88,"RA_OF_ASC_NODE":31520.96,"ARG_OF_PERICENTER":72934.15,"TRUE_ANOMALY":22377.99,"MEAN_ANOMALY":2631.78,"GM":93216.62,"MASS":37859.79,"SOLAR_RAD_AREA":24800.74,"SOLAR_RAD_COEFF":63093.12,"DRAG_AREA":33115.65,"DRAG_COEFF":60283.98,"COV_REF_FRAME":1,"CX_X":70943.38,"CY_X":14820.57,"CY_Y":2448.39,"CZ_X":92646.97,"CZ_Y":87775.7,"CZ_Z":51274.45,"CX_DOT_X":73436.23,"CX_DOT_Y":93425.16,"CX_DOT_Z":67726.77,"CX_DOT_X_DOT":2211.73,"CY_DOT_X":55675.57,"CY_DOT_Y":71742.36,"CY_DOT_Z":83569.92,"CY_DOT_X_DOT":13931.21,"CY_DOT_Y_DOT":57898,"CZ_DOT_X":24927.83,"CZ_DOT_Y":67652.12,"CZ_DOT_Z":4197.77,"CZ_DOT_X_DOT":34906.34,"CZ_DOT_Y_DOT":85930.45,"CZ_DOT_Z_DOT":14039.47,"MANEUVERS":[{"MAN_EPOCH_IGNITION":"2065-11-06T02:36:33.706Z","MAN_DURATION":25657.54,"MAN_DELTA_MASS":58667.3,"MAN_REF_FRAME":1,"MAN_DV_1":3100.15,"MAN_DV_2":62868.06,"MAN_DV_3":12659.91},{"MAN_EPOCH_IGNITION":"2036-04-08T17:37:29.935Z","MAN_DURATION":52847.52,"MAN_DELTA_MASS":74134.07,"MAN_REF_FRAME":1,"MAN_DV_1":95407.81,"MAN_DV_2":8145.95,"MAN_DV_3":99891.7}],"USER_DEFINED_BIP_0044_TYPE":399064271,"USER_DEFINED_OBJECT_DESIGNATOR":"]I)<][?Xj?","USER_DEFINED_EARTH_MODEL":"b_Yox9'i&[","USER_DEFINED_EPOCH_TIMESTAMP":6181.67,"USER_DEFINED_EPOCH_MICROSECONDS":18488.81}]}